[
  {
    "OBJECT_NAME": "STARLINK-30117",
    "OBJECT_ID": "2023-067Q",
    "EPOCH": "2025-05-31T06:55:40.804608",
    "MEAN_MOTION": 15.02536583,
    "ECCENTRICITY": 0.000105,
    "INCLINATION": 43.0041,
    "RA_OF_ASC_NODE": 9.3964,
    "ARG_OF_PERICENTER": 265.5829,
    "MEAN_ANOMALY": 94.4893,
    "EPHEMERIS_TYPE": 0,
    "CLASSIFICATION_TYPE": "U",
    "NORAD_CAT_ID": 56702,
    "ELEMENT_SET_NO": 999,
    "REV_AT_EPOCH": 11317,
    "BSTAR": 4.6073e-05,
    "MEAN_MOTION_DOT": 4.19e-06,
    "MEAN_MOTION_DDOT": 0
  },
  {
    "OBJECT_NAME": "STARLINK-30132",
    "OBJECT_ID": "2023-067R",
    "EPOCH": "2025-05-31T07:33:51.958080",
    "MEAN_MOTION": 15.02540155,
    "ECCENTRICITY": 8.45e-05,
    "INCLINATION": 43.0082,
    "RA_OF_ASC_NODE": 8.7945,
    "ARG_OF_PERICENTER": 287.1462,
    "MEAN_ANOMALY": 72.9288,
    "EPHEMERIS_TYPE": 0,
    "CLASSIFICATION_TYPE": "U",
    "NORAD_CAT_ID": 56703,
    "ELEMENT_SET_NO": 999,
    "REV_AT_EPOCH": 11318,
    "BSTAR": 4.0507e-05,
    "MEAN_MOTION_DOT": 3.44e-06,
    "MEAN_MOTION_DDOT": 0
  },
  {
    "OBJECT_NAME": "STARLINK-30066",
    "OBJECT_ID": "2023-067S",
    "EPOCH": "2025-05-31T07:05:06.741888",
    "MEAN_MOTION": 15.0253581,
    "ECCENTRICITY": 9.96e-05,
    "INCLINATION": 43.0045,
    "RA_OF_ASC_NODE": 8.6304,
    "ARG_OF_PERICENTER": 265.0586,
    "MEAN_ANOMALY": 95.0142,
    "EPHEMERIS_TYPE": 0,
    "CLASSIFICATION_TYPE": "U",
    "NORAD_CAT_ID": 56704,
    "ELEMENT_SET_NO": 999,
    "REV_AT_EPOCH": 11318,
    "BSTAR": -2.7002e-05,
    "MEAN_MOTION_DOT": -5.68e-06,
    "MEAN_MOTION_DDOT": 0
  },
  {
    "OBJECT_NAME": "STARLINK-30080",
    "OBJECT_ID": "2023-067T",
    "EPOCH": "2025-05-31T20:05:42.425376",
    "MEAN_MOTION": 15.02533125,
    "ECCENTRICITY": 0.0001376,
    "INCLINATION": 43.0045,
    "RA_OF_ASC_NODE": 352.9099,
    "ARG_OF_PERICENTER": 273.778,
    "MEAN_ANOMALY": 86.2905,
    "EPHEMERIS_TYPE": 0,
    "CLASSIFICATION_TYPE": "U",
    "NORAD_CAT_ID": 56705,
    "ELEMENT_SET_NO": 999,
    "REV_AT_EPOCH": 11256,
    "BSTAR": 9.578e-05,
    "MEAN_MOTION_DOT": 1.09e-05,
    "MEAN_MOTION_DDOT": 0
  },
  {
    "OBJECT_NAME": "STARLINK-30079",
    "OBJECT_ID": "2023-067U",
    "EPOCH": "2025-05-31T07:24:18.017568",
    "MEAN_MOTION": 15.02527997,
    "ECCENTRICITY": 0.0001359,
    "INCLINATION": 43.0061,
    "RA_OF_ASC_NODE": 8.75,
    "ARG_OF_PERICENTER": 265.4793,
    "MEAN_ANOMALY": 94.5894,
    "EPHEMERIS_TYPE": 0,
    "CLASSIFICATION_TYPE": "U",
    "NORAD_CAT_ID": 56706,
    "ELEMENT_SET_NO": 999,
    "REV_AT_EPOCH": 11318,
    "BSTAR": -1.4848e-05,
    "MEAN_MOTION_DOT": -4.04e-06,
    "MEAN_MOTION_DDOT": 0
  },
  {
    "OBJECT_NAME": "STARLINK-30070",
    "OBJECT_ID": "2023-067V",
    "EPOCH": "2025-05-31T07:29:05.309664",
    "MEAN_MOTION": 15.02547114,
    "ECCENTRICITY": 0.0001405,
    "INCLINATION": 43.0053,
    "RA_OF_ASC_NODE": 8.7754,
    "ARG_OF_PERICENTER": 256.313,
    "MEAN_ANOMALY": 103.7556,
    "EPHEMERIS_TYPE": 0,
    "CLASSIFICATION_TYPE": "U",
    "NORAD_CAT_ID": 56707,
    "ELEMENT_SET_NO": 999,
    "REV_AT_EPOCH": 11318,
    "BSTAR": -0.000251,
    "MEAN_MOTION_DOT": -3.594e-05,
    "MEAN_MOTION_DDOT": 0
  },
  {
    "OBJECT_NAME": "STARLINK-30071",
    "OBJECT_ID": "2023-067W",
    "EPOCH": "2025-05-31T21:31:27.505632",
    "MEAN_MOTION": 15.02528195,
    "ECCENTRICITY": 0.0001232,
    "INCLINATION": 43.005,
    "RA_OF_ASC_NODE": 5.4213,
    "ARG_OF_PERICENTER": 267.1431,
    "MEAN_ANOMALY": 92.927,
    "EPHEMERIS_TYPE": 0,
    "CLASSIFICATION_TYPE": "U",
    "NORAD_CAT_ID": 56708,
    "ELEMENT_SET_NO": 999,
    "REV_AT_EPOCH": 11242,
    "BSTAR": 3.2278e-05,
    "MEAN_MOTION_DOT": 2.32e-06,
    "MEAN_MOTION_DDOT": 0
  },
  {
    "OBJECT_NAME": "STARLINK-30085",
    "OBJECT_ID": "2023-067X",
    "EPOCH": "2025-05-31T00:56:35.011104",
    "MEAN_MOTION": 15.02534869,
    "ECCENTRICITY": 0.0001148,
    "INCLINATION": 43.0056,
    "RA_OF_ASC_NODE": 10.1647,
    "ARG_OF_PERICENTER": 278.5388,
    "MEAN_ANOMALY": 81.5325,
    "EPHEMERIS_TYPE": 0,
    "CLASSIFICATION_TYPE": "U",
    "NORAD_CAT_ID": 56709,
    "ELEMENT_SET_NO": 999,
    "REV_AT_EPOCH": 11288,
    "BSTAR": 7.8131e-05,
    "MEAN_MOTION_DOT": 8.52e-06,
    "MEAN_MOTION_DDOT": 0
  },
  {
    "OBJECT_NAME": "STARLINK-6197",
    "OBJECT_ID": "2023-078A",
    "EPOCH": "2025-05-31T14:53:24.384768",
    "MEAN_MOTION": 15.04236024,
    "ECCENTRICITY": 0.0006106,
    "INCLINATION": 69.9985,
    "RA_OF_ASC_NODE": 354.1334,
    "ARG_OF_PERICENTER": 197.3967,
    "MEAN_ANOMALY": 162.6987,
    "EPHEMERIS_TYPE": 0,
    "CLASSIFICATION_TYPE": "U",
    "NORAD_CAT_ID": 56767,
    "ELEMENT_SET_NO": 999,
    "REV_AT_EPOCH": 10997,
    "BSTAR": 0.0010413,
    "MEAN_MOTION_DOT": 0.00014443,
    "MEAN_MOTION_DDOT": 0
  },
  {
    "OBJECT_NAME": "STARLINK-6198",
    "OBJECT_ID": "2023-078B",
    "EPOCH": "2025-05-31T14:31:50.161152",
    "MEAN_MOTION": 14.98330258,
    "ECCENTRICITY": 0.0002674,
    "INCLINATION": 69.9989,
    "RA_OF_ASC_NODE": 315.5523,
    "ARG_OF_PERICENTER": 270.4454,
    "MEAN_ANOMALY": 89.6399,
    "EPHEMERIS_TYPE": 0,
    "CLASSIFICATION_TYPE": "U",
    "NORAD_CAT_ID": 56768,
    "ELEMENT_SET_NO": 999,
    "REV_AT_EPOCH": 11092,
    "BSTAR": 3.5575e-05,
    "MEAN_MOTION_DOT": 3.32e-06,
    "MEAN_MOTION_DDOT": 0
  },
  {
    "OBJECT_NAME": "STARLINK-5978",
    "OBJECT_ID": "2023-078C",
    "EPOCH": "2025-05-31T20:00:01.999872",
    "MEAN_MOTION": 15.2722862,
    "ECCENTRICITY": 0.000328,
    "INCLINATION": 70.0012,
    "RA_OF_ASC_NODE": 353.1367,
    "ARG_OF_PERICENTER": 272.8918,
    "MEAN_ANOMALY": 235.2619,
    "EPHEMERIS_TYPE": 0,
    "CLASSIFICATION_TYPE": "U",
    "NORAD_CAT_ID": 56769,
    "ELEMENT_SET_NO": 999,
    "REV_AT_EPOCH": 11027,
    "BSTAR": 0.015543,
    "MEAN_MOTION_DOT": 0.0044135,
    "MEAN_MOTION_DDOT": 0
  },
  {
    "OBJECT_NAME": "STARLINK-6342",
    "OBJECT_ID": "2023-078D",
    "EPOCH": "2025-05-31T14:32:45.399264",
    "MEAN_MOTION": 14.98330498,
    "ECCENTRICITY": 0.000246,
    "INCLINATION": 70,
    "RA_OF_ASC_NODE": 355.6952,
    "ARG_OF_PERICENTER": 267.0641,
    "MEAN_ANOMALY": 93.0237,
    "EPHEMERIS_TYPE": 0,
    "CLASSIFICATION_TYPE": "U",
    "NORAD_CAT_ID": 56770,
    "ELEMENT_SET_NO": 999,
    "REV_AT_EPOCH": 10993,
    "BSTAR": -1.8092e-05,
    "MEAN_MOTION_DOT": -3.09e-06,
    "MEAN_MOTION_DDOT": 0
  },
  {
    "OBJECT_NAME": "STARLINK-6275",
    "OBJECT_ID": "2023-078F",
    "EPOCH": "2025-05-31T14:26:30.278112",
    "MEAN_MOTION": 14.98331127,
    "ECCENTRICITY": 0.0002849,
    "INCLINATION": 69.9999,
    "RA_OF_ASC_NODE": 355.6764,
    "ARG_OF_PERICENTER": 269.3436,
    "MEAN_ANOMALY": 90.7396,
    "EPHEMERIS_TYPE": 0,
    "CLASSIFICATION_TYPE": "U",
    "NORAD_CAT_ID": 56772,
    "ELEMENT_SET_NO": 999,
    "REV_AT_EPOCH": 10993,
    "BSTAR": 8.5144e-06,
    "MEAN_MOTION_DOT": 9e-08,
    "MEAN_MOTION_DDOT": 0
  },
  {
    "OBJECT_NAME": "STARLINK-6296",
    "OBJECT_ID": "2023-078G",
    "EPOCH": "2025-05-31T13:43:27.787296",
    "MEAN_MOTION": 14.98328353,
    "ECCENTRICITY": 0.000299,
    "INCLINATION": 69.999,
    "RA_OF_ASC_NODE": 295.9417,
    "ARG_OF_PERICENTER": 270.6409,
    "MEAN_ANOMALY": 89.4408,
    "EPHEMERIS_TYPE": 0,
    "CLASSIFICATION_TYPE": "U",
    "NORAD_CAT_ID": 56773,
    "ELEMENT_SET_NO": 999,
    "REV_AT_EPOCH": 11140,
    "BSTAR": 8.6924e-05,
    "MEAN_MOTION_DOT": 9.44e-06,
    "MEAN_MOTION_DDOT": 0
  }
]