STARLINK-30117          
1 56702U 23067Q   25151.28866672  .00000419  00000+0  46073-4 0  9994
2 56702  43.0041   9.3964 0001050 265.5829  94.4893 15.02536583113176
STARLINK-30132          
1 56703U 23067R   25151.31518470  .00000344  00000+0  40507-4 0  9992
2 56703  43.0082   8.7945 0000845 287.1462  72.9288 15.02540155113188
STARLINK-30066          
1 56704U 23067S   25151.29521692 -.00000568  00000+0 -27002-4 0  9995
2 56704  43.0045   8.6304 0000996 265.0586  95.0142 15.02535810113182
STARLINK-30080          
1 56705U 23067T   25151.83729659  .00001090  00000+0  95780-4 0  9996
2 56705  43.0045 352.9099 0001376 273.7780  86.2905 15.02533125112561
STARLINK-30079          
1 56706U 23067U   25151.30854187 -.00000404  00000+0 -14848-4 0  9990
2 56706  43.0061   8.7500 0001359 265.4793  94.5894 15.02527997113184
STARLINK-30070          
1 56707U 23067V   25151.31186701 -.00003594  00000+0 -25100-3 0  9997
2 56707  43.0053   8.7754 0001405 256.3130 103.7556 15.02547114113184
STARLINK-30071          
1 56708U 23067W   25151.89684613  .00000232  00000+0  32278-4 0  9995
2 56708  43.0050   5.4213 0001232 267.1431  92.9270 15.02528195112424
STARLINK-30085          
1 56709U 23067X   25151.03929411  .00000852  00000+0  78131-4 0  9996
2 56709  43.0056  10.1647 0001148 278.5388  81.5325 15.02534869112888
STARLINK-6197           
1 56767U 23078A   25151.62042112  .00014443  00000+0  10413-2 0  9999
2 56767  69.9985 354.1334 0006106 197.3967 162.6987 15.04236024109979
STARLINK-6198           
1 56768U 23078B   25151.60544168  .00000332  00000+0  35575-4 0  9996
2 56768  69.9989 315.5523 0002674 270.4454  89.6399 14.98330258110923
STARLINK-5978           
1 56769U 23078C   25151.83335648  .00441350  00000+0  15543-1 0  9992
2 56769  70.0012 353.1367 0003280 272.8918 235.2619 15.27228620110277
STARLINK-6342           
1 56770U 23078D   25151.60608101 -.00000309  00000+0 -18092-4 0  9998
2 56770  70.0000 355.6952 0002460 267.0641  93.0237 14.98330498109932
STARLINK-6275           
1 56772U 23078F   25151.60173933  .00000009  00000+0  85144-5 0  9998
2 56772  69.9999 355.6764 0002849 269.3436  90.7396 14.98331127109937
STARLINK-6296           
1 56773U 23078G   25151.57184939  .00000944  00000+0  86924-4 0  9997
2 56773  69.9990 295.9417 0002990 270.6409  89.4408 14.98328353111403
